{
  "type": "FeatureCollection",
  "features": [
    {
      "type": "Feature",
      "properties": {
        "norad_id": 34852,
        "name": "COSMOS 2251 DEB",
        "group": "cosmos-2251-debris",
        "lat": -73.98517615385475,
        "lon": 158.7173892600226,
        "alt_km": 774.4702198666891,
        "timestamp": "2025-12-18T07:01:54.984830+00:00",
        "meta_object_name": "COSMOS 2251 DEB",
        "meta_object_id": "1993-036ABW",
        "meta_epoch": "2025-12-16T01:59:18.966624",
        "meta_mean_motion": 14.3700768,
        "meta_eccentricity": 0.00163324,
        "meta_inclination": 74.0328,
        "meta_ra_of_asc_node": 256.8235,
        "meta_arg_of_pericenter": 359.1989,
        "meta_mean_anomaly": 0.9135,
        "meta_ephemeris_type": 0,
        "meta_classification_type": "U",
        "meta_norad_cat_id": 34852,
        "meta_element_set_no": 999,
        "meta_rev_at_epoch": 87582,
        "meta_bstar": 0.00011051411,
        "meta_mean_motion_dot": 3.02e-06,
        "meta_mean_motion_ddot": 0,
        "tle_line1": "1 34852U 93036ABW 25350.08285841  .00000302  00000+0  11051-3 0  9999",
        "tle_line2": "2 34852  74.0328 256.8235 0016332 359.1989   0.9135 14.37007680875822"
      },
      "geometry": {
        "type": "Point",
        "coordinates": [
          158.7173892600226,
          -73.98517615385475
        ]
      }
    },
    {
      "type": "Feature",
      "properties": {
        "norad_id": 34854,
        "name": "COSMOS 2251 DEB",
        "group": "cosmos-2251-debris",
        "lat": -60.14139514187675,
        "lon": -2.3748560323773225,
        "alt_km": 601.5623325171218,
        "timestamp": "2025-12-18T07:01:54.984840+00:00",
        "meta_object_name": "COSMOS 2251 DEB",
        "meta_object_id": "1993-036ABY",
        "meta_epoch": "2025-12-17T03:54:33.341760",
        "meta_mean_motion": 14.76668527,
        "meta_eccentricity": 0.00660904,
        "meta_inclination": 74.0279,
        "meta_ra_of_asc_node": 149.9114,
        "meta_arg_of_pericenter": 260.7011,
        "meta_mean_anomaly": 98.6686,
        "meta_ephemeris_type": 0,
        "meta_classification_type": "U",
        "meta_norad_cat_id": 34854,
        "meta_element_set_no": 999,
        "meta_rev_at_epoch": 71947,
        "meta_bstar": 0.00058059968,
        "meta_mean_motion_dot": 4.175e-05,
        "meta_mean_motion_ddot": 0,
        "tle_line1": "1 34854U 93036ABY 25351.16288590  .00004175  00000+0  58060-3 0  9998",
        "tle_line2": "2 34854  74.0279 149.9114 0066090 260.7011  98.6686 14.76668527719475"
      },
      "geometry": {
        "type": "Point",
        "coordinates": [
          -2.3748560323773225,
          -60.14139514187675
        ]
      }
    },
    {
      "type": "Feature",
      "properties": {
        "norad_id": 34856,
        "name": "COSMOS 2251 DEB",
        "group": "cosmos-2251-debris",
        "lat": -8.519301794358958,
        "lon": -104.10816345873342,
        "alt_km": 530.3432710409124,
        "timestamp": "2025-12-18T07:01:54.984850+00:00",
        "meta_object_name": "COSMOS 2251 DEB",
        "meta_object_id": "1993-036ACA",
        "meta_epoch": "2025-12-17T16:31:15.110976",
        "meta_mean_motion": 15.06323911,
        "meta_eccentricity": 0.00323042,
        "meta_inclination": 73.9979,
        "meta_ra_of_asc_node": 74.6713,
        "meta_arg_of_pericenter": 212.1209,
        "meta_mean_anomaly": 299.3797,
        "meta_ephemeris_type": 0,
        "meta_classification_type": "U",
        "meta_norad_cat_id": 34856,
        "meta_element_set_no": 999,
        "meta_rev_at_epoch": 89186,
        "meta_bstar": 0.0014433857,
        "meta_mean_motion_dot": 0.00021501,
        "meta_mean_motion_ddot": 0,
        "tle_line1": "1 34856U 93036ACA 25351.68836934  .00021501  00000+0  14434-2 0  9996",
        "tle_line2": "2 34856  73.9979  74.6713 0032304 212.1209 299.3797 15.06323911891868"
      },
      "geometry": {
        "type": "Point",
        "coordinates": [
          -104.10816345873342,
          -8.519301794358958
        ]
      }
    },
    {
      "type": "Feature",
      "properties": {
        "norad_id": 34857,
        "name": "COSMOS 2251 DEB",
        "group": "cosmos-2251-debris",
        "lat": -24.338223518626837,
        "lon": 88.78818459312609,
        "alt_km": 721.1976960325037,
        "timestamp": "2025-12-18T07:01:54.984860+00:00",
        "meta_object_name": "COSMOS 2251 DEB",
        "meta_object_id": "1993-036ACB",
        "meta_epoch": "2025-12-17T13:07:27.079680",
        "meta_mean_motion": 14.58941212,
        "meta_eccentricity": 0.00656795,
        "meta_inclination": 74.0163,
        "meta_ra_of_asc_node": 97.66,
        "meta_arg_of_pericenter": 221.2744,
        "meta_mean_anomaly": 155.4118,
        "meta_ephemeris_type": 0,
        "meta_classification_type": "U",
        "meta_norad_cat_id": 34857,
        "meta_element_set_no": 999,
        "meta_rev_at_epoch": 87971,
        "meta_bstar": 0.00084400189,
        "meta_mean_motion_dot": 4.049e-05,
        "meta_mean_motion_ddot": 0,
        "tle_line1": "1 34857U 93036ACB 25351.54684120  .00004049  00000+0  84400-3 0  9999",
        "tle_line2": "2 34857  74.0163  97.6600 0065679 221.2744 155.4118 14.58941212879717"
      },
      "geometry": {
        "type": "Point",
        "coordinates": [
          88.78818459312609,
          -24.338223518626837
        ]
      }
    },
    {
      "type": "Feature",
      "properties": {
        "norad_id": 34859,
        "name": "COSMOS 2251 DEB",
        "group": "cosmos-2251-debris",
        "lat": -28.084477430124164,
        "lon": -40.69214506987552,
        "alt_km": 523.6043448297314,
        "timestamp": "2025-12-18T07:01:54.984870+00:00",
        "meta_object_name": "COSMOS 2251 DEB",
        "meta_object_id": "1993-036ACD",
        "meta_epoch": "2025-12-17T09:40:42.786336",
        "meta_mean_motion": 15.15503393,
        "meta_eccentricity": 0.00017445,
        "meta_inclination": 74.0275,
        "meta_ra_of_asc_node": 329.9516,
        "meta_arg_of_pericenter": 6.3608,
        "meta_mean_anomaly": 152.1798,
        "meta_ephemeris_type": 0,
        "meta_classification_type": "U",
        "meta_norad_cat_id": 34859,
        "meta_element_set_no": 999,
        "meta_rev_at_epoch": 88429,
        "meta_bstar": 0.0034257247,
        "meta_mean_motion_dot": 0.00065458,
        "meta_mean_motion_ddot": 0,
        "tle_line1": "1 34859U 93036ACD 25351.40327299  .00065458  00000+0  34257-2 0  9992",
        "tle_line2": "2 34859  74.0275 329.9516 0001744   6.3608 152.1798 15.15503393884299"
      },
      "geometry": {
        "type": "Point",
        "coordinates": [
          -40.69214506987552,
          -28.084477430124164
        ]
      }
    },
    {
      "type": "Feature",
      "properties": {
        "norad_id": 34861,
        "name": "COSMOS 2251 DEB",
        "group": "cosmos-2251-debris",
        "lat": -11.218969203857435,
        "lon": 36.24673716432518,
        "alt_km": 558.1241295802365,
        "timestamp": "2025-12-18T07:01:54.984881+00:00",
        "meta_object_name": "COSMOS 2251 DEB",
        "meta_object_id": "1993-036ACF",
        "meta_epoch": "2025-12-17T10:22:29.189856",
        "meta_mean_motion": 15.02859536,
        "meta_eccentricity": 0.0007452,
        "meta_inclination": 74.0197,
        "meta_ra_of_asc_node": 41.2633,
        "meta_arg_of_pericenter": 32.2824,
        "meta_mean_anomaly": 341.4159,
        "meta_ephemeris_type": 0,
        "meta_classification_type": "U",
        "meta_norad_cat_id": 34861,
        "meta_element_set_no": 999,
        "meta_rev_at_epoch": 88163,
        "meta_bstar": 0.0018302067,
        "meta_mean_motion_dot": 0.00024602,
        "meta_mean_motion_ddot": 0,
        "tle_line1": "1 34861U 93036ACF 25351.43228229  .00024602  00000+0  18302-2 0  9990",
        "tle_line2": "2 34861  74.0197  41.2633 0007452  32.2824 341.4159 15.02859536881637"
      },
      "geometry": {
        "type": "Point",
        "coordinates": [
          36.24673716432518,
          -11.218969203857435
        ]
      }
    },
    {
      "type": "Feature",
      "properties": {
        "norad_id": 34874,
        "name": "COSMOS 2251 DEB",
        "group": "cosmos-2251-debris",
        "lat": 50.30491014151559,
        "lon": 83.7354355976799,
        "alt_km": 735.518253985927,
        "timestamp": "2025-12-18T07:01:54.984891+00:00",
        "meta_object_name": "COSMOS 2251 DEB",
        "meta_object_id": "1993-036ACM",
        "meta_epoch": "2025-12-15T15:57:33.247296",
        "meta_mean_motion": 14.36325201,
        "meta_eccentricity": 0.00508248,
        "meta_inclination": 74.0399,
        "meta_ra_of_asc_node": 68.3924,
        "meta_arg_of_pericenter": 92.7738,
        "meta_mean_anomaly": 57.2671,
        "meta_ephemeris_type": 0,
        "meta_classification_type": "U",
        "meta_norad_cat_id": 34874,
        "meta_element_set_no": 999,
        "meta_rev_at_epoch": 87086,
        "meta_bstar": 0.00056877807,
        "meta_mean_motion_dot": 1.663e-05,
        "meta_mean_motion_ddot": 0,
        "tle_line1": "1 34874U 93036ACM 25349.66496814  .00001663  00000+0  56878-3 0  9996",
        "tle_line2": "2 34874  74.0399  68.3924 0050824  92.7738  57.2671 14.36325201870861"
      },
      "geometry": {
        "type": "Point",
        "coordinates": [
          83.7354355976799,
          50.30491014151559
        ]
      }
    }
  ]
}